{"type": "FeatureCollection", "features": [ {"type": "Feature", "properties": {"norad_id": 34682, "name": "COSMOS 2251 DEB", "group": "cosmos-2251-debris", "lat": -53.63143105667125, "lon": 70.4538943322179, "alt_km": 700.557987625677, "timestamp": "2025-12-07T07:31:36.692889+00:00", "meta": {"OBJECT_NAME": "COSMOS 2251 DEB", "OBJECT_ID": "1993-036YC", "EPOCH": "2025-12-06T01:20:12.634656", "MEAN_MOTION": 14.58815913, "ECCENTRICITY": 0.00186662, "INCLINATION": 74.0399, "RA_OF_ASC_NODE": 95.7163, "ARG_OF_PERICENTER": 229.0805, "MEAN_ANOMALY": 310.3215, "EPHEMERIS_TYPE": 0, "CLASSIFICATION_TYPE": "U", "NORAD_CAT_ID": 34682, "ELEMENT_SET_NO": 999, "REV_AT_EPOCH": 88588, "BSTAR": 0.0014911764, "MEAN_MOTION_DOT": 6.968e-05, "MEAN_MOTION_DDOT": 0}, "tle": {"line1": "1 34682U 93036YC  25340.05570179  .00006968  00000+0  14912-2 0  9999", "line2": "2 34682  74.0399  95.7163 0018666 229.0805 310.3215 14.58815913885888"}}, "geometry": {"type": "Point", "coordinates": [70.4538943322179, -53.63143105667125]}}, {"type": "Feature", "properties": {"norad_id": 34683, "name": "COSMOS 2251 DEB", "group": "cosmos-2251-debris", "lat": -12.494297458799963, "lon": 99.06153951791278, "alt_km": 691.5666778760824, "timestamp": "2025-12-07T07:31:36.692899+00:00", "meta": {"OBJECT_NAME": "COSMOS 2251 DEB", "OBJECT_ID": "1993-036YD", "EPOCH": "2025-12-06T19:01:34.135680", "MEAN_MOTION": 14.64356013, "ECCENTRICITY": 0.00186175, "INCLINATION": 74.0295, "RA_OF_ASC_NODE": 103.7007, "ARG_OF_PERICENTER": 218.7009, "MEAN_ANOMALY": 263.542, "EPHEMERIS_TYPE": 0, "CLASSIFICATION_TYPE": "U", "NORAD_CAT_ID": 34683, "ELEMENT_SET_NO": 999, "REV_AT_EPOCH": 88261, "BSTAR": 0.0025066813, "MEAN_MOTION_DOT": 0.00013271, "MEAN_MOTION_DDOT": 0}, "tle": {"line1": "1 34683U 93036YD  25340.79275620  .00013271  00000+0  25067-2 0  9992", "line2": "2 34683  74.0295 103.7007 0018617 218.7009 263.5420 14.64356013882611"}}, "geometry": {"type": "Point", "coordinates": [99.06153951791278, -12.494297458799963]}}, {"type": "Feature", "properties": {"norad_id": 34685, "name": "COSMOS 2251 DEB", "group": "cosmos-2251-debris", "lat": -73.65807661975462, "lon": 81.47777106295275, "alt_km": 698.4232157692413, "timestamp": "2025-12-07T07:31:36.692909+00:00", "meta": {"OBJECT_NAME": "COSMOS 2251 DEB", "OBJECT_ID": "1993-036YF", "EPOCH": "2025-12-06T18:49:31.397088", "MEAN_MOTION": 14.57425085, "ECCENTRICITY": 0.00143725, "INCLINATION": 74.0284, "RA_OF_ASC_NODE": 160.1044, "ARG_OF_PERICENTER": 264.1612, "MEAN_ANOMALY": 113.6888, "EPHEMERIS_TYPE": 0, "CLASSIFICATION_TYPE": "U", "NORAD_CAT_ID": 34685, "ELEMENT_SET_NO": 999, "REV_AT_EPOCH": 88445, "BSTAR": 0.0017526589, "MEAN_MOTION_DOT": 7.944e-05, "MEAN_MOTION_DDOT": 0}, "tle": {"line1": "1 34685U 93036YF  25340.78439117  .00007944  00000+0  17527-2 0  9998", "line2": "2 34685  74.0284 160.1044 0014372 264.1612 113.6888 14.57425085884453"}}, "geometry": {"type": "Point", "coordinates": [81.47777106295275, -73.65807661975462]}}, {"type": "Feature", "properties": {"norad_id": 34689, "name": "COSMOS 2251 DEB", "group": "cosmos-2251-debris", "lat": 66.97666240731658, "lon": -85.00300910957019, "alt_km": 978.0212758334064, "timestamp": "2025-12-07T07:31:36.692920+00:00", "meta": {"OBJECT_NAME": "COSMOS 2251 DEB", "OBJECT_ID": "1993-036YK", "EPOCH": "2025-12-01T04:52:05.077056", "MEAN_MOTION": 14.04150485, "ECCENTRICITY": 0.0229843, "INCLINATION": 74.0888, "RA_OF_ASC_NODE": 243.4543, "ARG_OF_PERICENTER": 314.8144, "MEAN_ANOMALY": 197.2792, "EPHEMERIS_TYPE": 0, "CLASSIFICATION_TYPE": "U", "NORAD_CAT_ID": 34689, "ELEMENT_SET_NO": 999, "REV_AT_EPOCH": 84179, "BSTAR": 0.0056499, "MEAN_MOTION_DOT": 0.00011323, "MEAN_MOTION_DDOT": 0}, "tle": {"line1": "1 34689U 93036YK  25335.20283654  .00011323  00000+0  56499-2 0  9993", "line2": "2 34689  74.0888 243.4543 0229843 314.8144 197.2792 14.04150485841793"}}, "geometry": {"type": "Point", "coordinates": [-85.00300910957019, 66.97666240731658]}}, {"type": "Feature", "properties": {"norad_id": 34721, "name": "COSMOS 2251 DEB", "group": "cosmos-2251-debris", "lat": -62.970928992864536, "lon": -169.9154400477725, "alt_km": 766.4076669157021, "timestamp": "2025-12-07T07:31:36.692930+00:00", "meta": {"OBJECT_NAME": "COSMOS 2251 DEB", "OBJECT_ID": "1993-036YP", "EPOCH": "2025-12-05T23:31:26.699232", "MEAN_MOTION": 13.96799465, "ECCENTRICITY": 0.02239253, "INCLINATION": 73.9235, "RA_OF_ASC_NODE": 337.977, "ARG_OF_PERICENTER": 278.1349, "MEAN_ANOMALY": 108.3025, "EPHEMERIS_TYPE": 0, "CLASSIFICATION_TYPE": "U", "NORAD_CAT_ID": 34721, "ELEMENT_SET_NO": 999, "REV_AT_EPOCH": 85055, "BSTAR": 0.0028739518, "MEAN_MOTION_DOT": 4.911e-05, "MEAN_MOTION_DDOT": 0}, "tle": {"line1": "1 34721U 93036YP  25339.98017013  .00004911  00000+0  28740-2 0  9996", "line2": "2 34721  73.9235 337.9770 0223925 278.1349 108.3025 13.96799465850552"}}, "geometry": {"type": "Point", "coordinates": [-169.9154400477725, -62.970928992864536]}}, {"type": "Feature", "properties": {"norad_id": 34722, "name": "COSMOS 2251 DEB", "group": "cosmos-2251-debris", "lat": 1.4986780960403736, "lon": 165.31327286617315, "alt_km": 861.4142027610724, "timestamp": "2025-12-07T07:31:36.692940+00:00", "meta": {"OBJECT_NAME": "COSMOS 2251 DEB", "OBJECT_ID": "1993-036YQ", "EPOCH": "2025-12-06T10:59:26.093760", "MEAN_MOTION": 14.11903197, "ECCENTRICITY": 0.01673731, "INCLINATION": 73.8723, "RA_OF_ASC_NODE": 347.2724, "ARG_OF_PERICENTER": 273.9051, "MEAN_ANOMALY": 238.7322, "EPHEMERIS_TYPE": 0, "CLASSIFICATION_TYPE": "U", "NORAD_CAT_ID": 34722, "ELEMENT_SET_NO": 999, "REV_AT_EPOCH": 86156, "BSTAR": 0.0015913748, "MEAN_MOTION_DOT": 3.292e-05, "MEAN_MOTION_DDOT": 0}, "tle": {"line1": "1 34722U 93036YQ  25340.45794090  .00003292  00000+0  15914-2 0  9998", "line2": "2 34722  73.8723 347.2724 0167373 273.9051 238.7322 14.11903197861562"}}, "geometry": {"type": "Point", "coordinates": [165.31327286617315, 1.4986780960403736]}}, {"type": "Feature", "properties": {"norad_id": 34726, "name": "COSMOS 2251 DEB", "group": "cosmos-2251-debris", "lat": 0.28395531958514403, "lon": -3.2435106958997344, "alt_km": 723.1032683691055, "timestamp": "2025-12-07T07:31:36.692950+00:00", "meta": {"OBJECT_NAME": "COSMOS 2251 DEB", "OBJECT_ID": "1993-036YU", "EPOCH": "2025-12-06T20:00:34.392096", "MEAN_MOTION": 14.59448783, "ECCENTRICITY": 0.0042302, "INCLINATION": 74.029, "RA_OF_ASC_NODE": 357.5901, "ARG_OF_PERICENTER": 150.2287, "MEAN_ANOMALY": 210.1299, "EPHEMERIS_TYPE": 0, "CLASSIFICATION_TYPE": "U", "NORAD_CAT_ID": 34726, "ELEMENT_SET_NO": 999, "REV_AT_EPOCH": 88416, "BSTAR": 0.00073311508, "MEAN_MOTION_DOT": 3.491e-05, "MEAN_MOTION_DDOT": 0}, "tle": {"line1": "1 34726U 93036YU  25340.83373139  .00003491  00000+0  73312-3 0  9999", "line2": "2 34726  74.0290 357.5901 0042302 150.2287 210.1299 14.59448783884166"}}, "geometry": {"type": "Point", "coordinates": [-3.2435106958997344, 0.28395531958514403]}}, {"type": "Feature", "properties": {"norad_id": 34728, "name": "COSMOS 2251 DEB", "group": "cosmos-2251-debris", "lat": 16.28325167627934, "lon": -92.88212769100433, "alt_km": 638.3720456712581, "timestamp": "2025-12-07T07:31:36.692960+00:00", "meta": {"OBJECT_NAME": "COSMOS 2251 DEB", "OBJECT_ID": "1993-036YW", "EPOCH": "2025-12-06T05:19:50.065536", "MEAN_MOTION": 14.70746647, "ECCENTRICITY": 0.00408299, "INCLINATION": 74.0179, "RA_OF_ASC_NODE": 264.4359, "ARG_OF_PERICENTER": 63.9353, "MEAN_ANOMALY": 296.6012, "EPHEMERIS_TYPE": 0, "CLASSIFICATION_TYPE": "U", "NORAD_CAT_ID": 34728, "ELEMENT_SET_NO": 999, "REV_AT_EPOCH": 88704, "BSTAR": 0.0014731687, "MEAN_MOTION_DOT": 9.083e-05, "MEAN_MOTION_DDOT": 0}, "tle": {"line1": "1 34728U 93036YW  25340.22210724  .00009083  00000+0  14732-2 0  9997", "line2": "2 34728  74.0179 264.4359 0040829  63.9353 296.6012 14.70746647887048"}}, "geometry": {"type": "Point", "coordinates": [-92.88212769100433, 16.28325167627934]}}, {"type": "Feature", "properties": {"norad_id": 34729, "name": "COSMOS 2251 DEB", "group": "cosmos-2251-debris", "lat": 19.708908489903123, "lon": -176.71630539086638, "alt_km": 613.5968821827155, "timestamp": "2025-12-07T07:31:36.692970+00:00", "meta": {"OBJECT_NAME": "COSMOS 2251 DEB", "OBJECT_ID": "1993-036YX", "EPOCH": "2025-12-06T20:15:19.026144", "MEAN_MOTION": 14.8254801, "ECCENTRICITY": 0.00119478, "INCLINATION": 74.018, "RA_OF_ASC_NODE": 10.1059, "ARG_OF_PERICENTER": 132.7151, "MEAN_ANOMALY": 41.0108, "EPHEMERIS_TYPE": 0, "CLASSIFICATION_TYPE": "U", "NORAD_CAT_ID": 34729, "ELEMENT_SET_NO": 999, "REV_AT_EPOCH": 88370, "BSTAR": 0.0030944347, "MEAN_MOTION_DOT": 0.0002497, "MEAN_MOTION_DDOT": 0}, "tle": {"line1": "1 34729U 93036YX  25340.84397021  .00024970  00000+0  30944-2 0  9997", "line2": "2 34729  74.0180  10.1059 0011947 132.7151  41.0108 14.82548010883708"}}, "geometry": {"type": "Point", "coordinates": [-176.71630539086638, 19.708908489903123]}}, {"type": "Feature", "properties": {"norad_id": 34732, "name": "COSMOS 2251 DEB", "group": "cosmos-2251-debris", "lat": -3.7470991099691426, "lon": 102.2518954681986, "alt_km": 742.9560141698748, "timestamp": "2025-12-07T07:31:36.692980+00:00", "meta": {"OBJECT_NAME": "COSMOS 2251 DEB", "OBJECT_ID": "1993-036ZA", "EPOCH": "2025-12-06T15:02:21.684768", "MEAN_MOTION": 14.47289594, "ECCENTRICITY": 0.00404754, "INCLINATION": 74.0448, "RA_OF_ASC_NODE": 104.6087, "ARG_OF_PERICENTER": 256.7471, "MEAN_ANOMALY": 121.1411, "EPHEMERIS_TYPE": 0, "CLASSIFICATION_TYPE": "U", "NORAD_CAT_ID": 34732, "ELEMENT_SET_NO": 999, "REV_AT_EPOCH": 88055, "BSTAR": 0.00029482269, "MEAN_MOTION_DOT": 1.062e-05, "MEAN_MOTION_DDOT": 0}, "tle": {"line1": "1 34732U 93036ZA  25340.62663987  .00001062  00000+0  29482-3 0  9997", "line2": "2 34732  74.0448 104.6087 0040475 256.7471 121.1411 14.47289594880556"}}, "geometry": {"type": "Point", "coordinates": [102.2518954681986, -3.7470991099691426]}}]}